{
  "type": "FeatureCollection",
  "features": [
    {
      "type": "Feature",
      "properties": {
        "norad_id": 28054,
        "name": "DMSP 5D-3 F16 (USA 172)",
        "group": "weather",
        "lat": 64.36184875348826,
        "lon": -141.570851075065,
        "alt_km": 842.1497544925933,
        "timestamp": "2025-12-27T13:34:48.932485+00:00",
        "meta_object_name": "DMSP 5D-3 F16 (USA 172)",
        "meta_object_id": "2003-048A",
        "meta_epoch": "2025-12-27T08:00:07.920864",
        "meta_mean_motion": 14.14429316,
        "meta_eccentricity": 0.00062447,
        "meta_inclination": 99.0037,
        "meta_ra_of_asc_node": 18.9045,
        "meta_arg_of_pericenter": 273.959,
        "meta_mean_anomaly": 97.3189,
        "meta_ephemeris_type": 0,
        "meta_classification_type": "U",
        "meta_norad_cat_id": 28054,
        "meta_element_set_no": 999,
        "meta_rev_at_epoch": 14519,
        "meta_bstar": 9.6194482e-05,
        "meta_mean_motion_dot": 1.39e-06,
        "meta_mean_motion_ddot": 0,
        "tle_line1": "1 28054U 03048A   25361.33342501  .00000139  00000+0  96194-4 0  9997",
        "tle_line2": "2 28054  99.0037  18.9045 0006244 273.9590  97.3189 14.14429316145199"
      },
      "geometry": {
        "type": "Point",
        "coordinates": [
          -141.570851075065,
          64.36184875348826
        ]
      }
    },
    {
      "type": "Feature",
      "properties": {
        "norad_id": 28912,
        "name": "METEOSAT-9 (MSG-2)",
        "group": "weather",
        "lat": -8.47707605396628,
        "lon": -14.89856963349798,
        "alt_km": 35487.24434106831,
        "timestamp": "2025-12-27T13:34:48.932532+00:00",
        "meta_object_name": "METEOSAT-9 (MSG-2)",
        "meta_object_id": "2005-049B",
        "meta_epoch": "2025-12-24T18:27:10.310976",
        "meta_mean_motion": 1.00268275,
        "meta_eccentricity": 0.00719695,
        "meta_inclination": 8.9553,
        "meta_ra_of_asc_node": 55.846,
        "meta_arg_of_pericenter": 282.2974,
        "meta_mean_anomaly": 77.0088,
        "meta_ephemeris_type": 0,
        "meta_classification_type": "U",
        "meta_norad_cat_id": 28912,
        "meta_element_set_no": 999,
        "meta_rev_at_epoch": 524,
        "meta_bstar": 0,
        "meta_mean_motion_dot": 1.45e-06,
        "meta_mean_motion_ddot": 0,
        "tle_line1": "1 28912U 05049B   25358.76886934  .00000145  00000+0  00000+0 0  9992",
        "tle_line2": "2 28912   8.9553  55.8460 0071969 282.2974  77.0088  1.00268275  5240"
      },
      "geometry": {
        "type": "Point",
        "coordinates": [
          -14.89856963349798,
          -8.47707605396628
        ]
      }
    },
    {
      "type": "Feature",
      "properties": {
        "norad_id": 29522,
        "name": "DMSP 5D-3 F17 (USA 191)",
        "group": "weather",
        "lat": 77.06635310381124,
        "lon": -35.40627302677837,
        "alt_km": 836.6025793331319,
        "timestamp": "2025-12-27T13:34:48.932551+00:00",
        "meta_object_name": "DMSP 5D-3 F17 (USA 191)",
        "meta_object_id": "2006-050A",
        "meta_epoch": "2025-12-27T06:24:44.569728",
        "meta_mean_motion": 14.14925902,
        "meta_eccentricity": 0.00100466,
        "meta_inclination": 98.7393,
        "meta_ra_of_asc_node": 6.3537,
        "meta_arg_of_pericenter": 181.8113,
        "meta_mean_anomaly": 178.3025,
        "meta_ephemeris_type": 0,
        "meta_classification_type": "U",
        "meta_norad_cat_id": 29522,
        "meta_element_set_no": 999,
        "meta_rev_at_epoch": 98810,
        "meta_bstar": 0.00012962412,
        "meta_mean_motion_dot": 2.07e-06,
        "meta_mean_motion_ddot": 0,
        "tle_line1": "1 29522U 06050A   25361.26718252  .00000207  00000+0  12962-3 0  9992",
        "tle_line2": "2 29522  98.7393   6.3537 0010046 181.8113 178.3025 14.14925902988108"
      },
      "geometry": {
        "type": "Point",
        "coordinates": [
          -35.40627302677837,
          77.06635310381124
        ]
      }
    },
    {
      "type": "Feature",
      "properties": {
        "norad_id": 32958,
        "name": "FENGYUN 3A",
        "group": "weather",
        "lat": 38.81857790331041,
        "lon": -66.27096996904818,
        "alt_km": 828.0298284956416,
        "timestamp": "2025-12-27T13:34:48.932565+00:00",
        "meta_object_name": "FENGYUN 3A",
        "meta_object_id": "2008-026A",
        "meta_epoch": "2025-12-27T06:37:43.272192",
        "meta_mean_motion": 14.19519236,
        "meta_eccentricity": 0.00076152,
        "meta_inclination": 98.6715,
        "meta_ra_of_asc_node": 300.4982,
        "meta_arg_of_pericenter": 263.0769,
        "meta_mean_anomaly": 96.9541,
        "meta_ephemeris_type": 0,
        "meta_classification_type": "U",
        "meta_norad_cat_id": 32958,
        "meta_element_set_no": 999,
        "meta_rev_at_epoch": 91101,
        "meta_bstar": 8.6501894e-05,
        "meta_mean_motion_dot": 1.39e-06,
        "meta_mean_motion_ddot": 0,
        "tle_line1": "1 32958U 08026A   25361.27619528  .00000139  00000+0  86502-4 0  9997",
        "tle_line2": "2 32958  98.6715 300.4982 0007615 263.0769  96.9541 14.19519236911010"
      },
      "geometry": {
        "type": "Point",
        "coordinates": [
          -66.27096996904818,
          38.81857790331041
        ]
      }
    },
    {
      "type": "Feature",
      "properties": {
        "norad_id": 35491,
        "name": "GOES 14",
        "group": "weather",
        "lat": 1.2370038401437817,
        "lon": -179.10816438927128,
        "alt_km": 35835.48404152648,
        "timestamp": "2025-12-27T13:34:48.932580+00:00",
        "meta_object_name": "GOES 14",
        "meta_object_id": "2009-033A",
        "meta_epoch": "2025-12-27T05:35:17.915136",
        "meta_mean_motion": 1.00097099,
        "meta_eccentricity": 7.994e-05,
        "meta_inclination": 1.2395,
        "meta_ra_of_asc_node": 85.2517,
        "meta_arg_of_pericenter": 194.7564,
        "meta_mean_anomaly": 140.8993,
        "meta_ephemeris_type": 0,
        "meta_classification_type": "U",
        "meta_norad_cat_id": 35491,
        "meta_element_set_no": 999,
        "meta_rev_at_epoch": 486,
        "meta_bstar": 0,
        "meta_mean_motion_dot": 4.6e-07,
        "meta_mean_motion_ddot": 0,
        "tle_line1": "1 35491U 09033A   25361.23284624  .00000046  00000+0  00000+0 0  9993",
        "tle_line2": "2 35491   1.2395  85.2517 0000799 194.7564 140.8993  1.00097099  4860"
      },
      "geometry": {
        "type": "Point",
        "coordinates": [
          -179.10816438927128,
          1.2370038401437817
        ]
      }
    },
    {
      "type": "Feature",
      "properties": {
        "norad_id": 35951,
        "name": "DMSP 5D-3 F18 (USA 210)",
        "group": "weather",
        "lat": -58.805798635631135,
        "lon": -7.133791983254131,
        "alt_km": 849.1519614029139,
        "timestamp": "2025-12-27T13:34:48.932592+00:00",
        "meta_object_name": "DMSP 5D-3 F18 (USA 210)",
        "meta_object_id": "2009-057A",
        "meta_epoch": "2025-12-27T05:22:34.674816",
        "meta_mean_motion": 14.14778934,
        "meta_eccentricity": 0.0011614,
        "meta_inclination": 98.8852,
        "meta_ra_of_asc_node": 337.5535,
        "meta_arg_of_pericenter": 24.3635,
        "meta_mean_anomaly": 335.8085,
        "meta_ephemeris_type": 0,
        "meta_classification_type": "U",
        "meta_norad_cat_id": 35951,
        "meta_element_set_no": 999,
        "meta_rev_at_epoch": 83527,
        "meta_bstar": 0.00019118949,
        "meta_mean_motion_dot": 3.24e-06,
        "meta_mean_motion_ddot": 0,
        "tle_line1": "1 35951U 09057A   25361.22401244  .00000324  00000+0  19119-3 0  9992",
        "tle_line2": "2 35951  98.8852 337.5535 0011614  24.3635 335.8085 14.14778934835277"
      },
      "geometry": {
        "type": "Point",
        "coordinates": [
          -7.133791983254131,
          -58.805798635631135
        ]
      }
    },
    {
      "type": "Feature",
      "properties": {
        "norad_id": 36411,
        "name": "EWS-G2 (GOES 15)",
        "group": "weather",
        "lat": -0.8468815343973299,
        "lon": 1.402887752673844,
        "alt_km": 35788.33313127221,
        "timestamp": "2025-12-27T13:34:48.932606+00:00",
        "meta_object_name": "EWS-G2 (GOES 15)",
        "meta_object_id": "2010-008A",
        "meta_epoch": "2025-12-27T04:44:00.328992",
        "meta_mean_motion": 1.00270991,
        "meta_eccentricity": 0.00056793,
        "meta_inclination": 0.8475,
        "meta_ra_of_asc_node": 86.0592,
        "meta_arg_of_pericenter": 180.6109,
        "meta_mean_anomaly": 321.6086,
        "meta_ephemeris_type": 0,
        "meta_classification_type": "U",
        "meta_norad_cat_id": 36411,
        "meta_element_set_no": 999,
        "meta_rev_at_epoch": 5791,
        "meta_bstar": 0,
        "meta_mean_motion_dot": 6e-07,
        "meta_mean_motion_ddot": 0,
        "tle_line1": "1 36411U 10008A   25361.19722603  .00000060  00000+0  00000+0 0  9995",
        "tle_line2": "2 36411   0.8475  86.0592 0005679 180.6109 321.6086  1.00270991 57910"
      },
      "geometry": {
        "type": "Point",
        "coordinates": [
          1.402887752673844,
          -0.8468815343973299
        ]
      }
    }
  ]
}